0 BREEZE-M DEB
1 38568U 08011P   13280.12396694 -.00004123  00000-0 -39447-1 0  3280
2 38568 049.1976 170.4909 6432006 254.9405 029.9582 03.15816669 27568
0 BREEZE-M DEB
1 38568U 08011P   13287.08948003 -.00003029  00000-0 -33926-1 0  3290
2 38568 049.2126 167.9777 6419373 257.0534 028.7544 03.15755409 27782
0 BREEZE-M DEB
1 38568U 08011P   13288.03944104 -.00002718  00000-0 -31099-1 0  3309
2 38568 049.2146 167.6376 6417721 257.3390 028.5967 03.15746425 27813
0 BREEZE-M DEB
1 38568U 08011P   13288.35610609 -.00002392  00000-0 -27709-1 0  3316
2 38568 049.2156 167.5264 6416840 257.4334 028.5483 03.15744585 27828
0 BREEZE-M DEB
1 38568U 08011P   13291.20615195 -.00002593  00000-0 -31811-1 0  3322
2 38568 049.2212 166.5090 6412279 258.2846 028.0791 03.15720258 27914
0 BREEZE-M DEB
1 38568U 08011P   13293.10626708 -.00001633  00000-0 -20491-1 0  3332
2 38568 049.2218 165.8165 6411486 258.8707 027.7362 03.15707210 27975
